IRIDIUM 171             
1 43929U 19002H   24082.24174592  .00000368  00000+0  12429-3 0  9996
2 43929  86.4014 335.2252 0002189  81.4919 278.6524 14.34219670271861
IRIDIUM 170             
1 43930U 19002J   24081.78546495  .00001791  00000+0  28031-3 0  9998
2 43930  86.6134 335.2502 0002111  84.5549 275.5909 14.72215874278992
IRIDIUM 167             
1 43931U 19002K   24081.74702427  .00000198  00000+0  63613-4 0  9990
2 43931  86.4005 335.2313 0002182  81.9707 278.1737 14.34218558271792
IRIDIUM 181             
1 56726U 23068S   24082.32266167  .00000843  00000+0  24340-3 0  9994
2 56726  86.8680  24.4616 0002652  82.5640 277.5863 14.43565811 44607
IRIDIUM 177             
1 56727U 23068T   24081.81627907  .00003532  00000+0  46113-3 0  9991
2 56727  86.2033 356.8413 0002894  81.8254 278.3295 14.80240323 45453
IRIDIUM 174             
1 56728U 23068U   24081.81085633  .00003275  00000+0  42736-3 0  9997
2 56728  86.2040 356.9406 0002445  91.6681 268.4820 14.80239727 45450
IRIDIUM 178             
1 56729U 23068V   24081.87306781  .00003535  00000+0  46164-3 0  9992
2 56729  86.5840  10.2230 0002479  94.6939 265.4565 14.80244846 45465
IRIDIUM 179             
1 56730U 23068W   24082.20559660  .00003421  00000+0  44646-3 0  9995
2 56730  86.6850  13.1167 0002593  91.1782 268.9737 14.80261652 45514
